[{"OBJECT_NAME":"IRIDIUM 173","OBJECT_ID":"2019-002D","EPOCH":"2026-03-09T23:25:14.922624","MEAN_MOTION":14.34217176,"ECCENTRICITY":0.00020878,"INCLINATION":86.3979,"RA_OF_ASC_NODE":35.0129,"ARG_OF_PERICENTER":83.8645,"MEAN_ANOMALY":276.2788,"EPHEMERIS_TYPE":0,"CLASSIFICATION_TYPE":"U","NORAD_CAT_ID":43925,"ELEMENT_SET_NO":999,"REV_AT_EPOCH":37473,"BSTAR":2.1469625e-5,"MEAN_MOTION_DOT":8.0e-7,"MEAN_MOTION_DDOT":0},{"OBJECT_NAME":"FENGYUN 1C DEB","OBJECT_ID":"1999-025CPQ","EPOCH":"2026-03-08T21:15:42.510816","MEAN_MOTION":14.45718841,"ECCENTRICITY":0.00497,"INCLINATION":99.0485,"RA_OF_ASC_NODE":52.0484,"ARG_OF_PERICENTER":263.1686,"MEAN_ANOMALY":126.5874,"EPHEMERIS_TYPE":0,"CLASSIFICATION_TYPE":"U","NORAD_CAT_ID":31987,"ELEMENT_SET_NO":999,"REV_AT_EPOCH":97614,"BSTAR":0.0013675556,"MEAN_MOTION_DOT":4.869e-5,"MEAN_MOTION_DDOT":0}]
